NORAD_CAT_ID,OBJECT_NAME,OBJECT_TYPE,EPOCH,MEAN_MOTION,ECCENTRICITY,INCLINATION,RA_OF_ASC_NODE,ARG_OF_PERICENTER,MEAN_ANOMALY,BSTAR,MEAN_MOTION_DOT,MEAN_MOTION_DDOT,TLE_LINE0,TLE_LINE1,TLE_LINE2,SEMIMAJOR_AXIS,PERIOD,APOGEE,PERIGEE,DECAYED
53390.0,STARLINK-4517,PAYLOAD,2022-10-10 14:00:01,15.08854448,0.0002384999999999,53.2172,318.1119,29.0879,177.9918,-0.0054738999999999,-0.00086401,0.0,0 STARLINK-4517,1 53390U 22097C   22283.58334491 -.00086401  00000-0 -54739-2 0  9995,2 53390  53.2172 318.1119 0002385  29.0879 177.9918 15.08854448  1302,6917.8359999999975,95.437,541.351,538.0509999999998,0.0
53390.0,STARLINK-4517,PAYLOAD,2022-10-10 22:00:01,15.0885093,0.000227,53.2173,316.6105,31.3973,187.2879,-0.001279,-0.00020593,0.0,0 STARLINK-4517,1 53390U 22097C   22283.91668981 -.00020593  00000-0 -12790-2 0  9997,2 53390  53.2173 316.6105 0002270  31.3973 187.2879 15.08850930  1307,6917.847,95.437,541.2819999999998,538.1419999999998,0.0
53390.0,STARLINK-4517,PAYLOAD,2022-10-11 14:00:01,15.08825076,0.000222,53.2171,313.6173,32.8147,209.0061,0.0012216,0.00019199,0.0,0 STARLINK-4517,1 53390U 22097C   22284.58334491  .00019199  00000-0  12216-2 0  9998,2 53390  53.2171 313.6173 0002220  32.8147 209.0061 15.08825076  1300,6917.926,95.438,541.327,538.255,0.0
53390.0,STARLINK-4517,PAYLOAD,2022-10-11 22:00:00,15.08825283,0.0002198999999999,53.2166,312.131,38.84,214.5284,0.00073689,0.00011454,0.0,0 STARLINK-4517,1 53390U 22097C   22284.91667824  .00011454  00000-0  73689-3 0  9992,2 53390  53.2166 312.1310 0002199  38.8400 214.5284 15.08825283  1302,6917.925,95.438,541.312,538.269,0.0
53390.0,STARLINK-4517,PAYLOAD,2022-10-12 06:00:00,15.08842841,0.0002299,53.2169,310.6335,38.8748,226.075,-0.00043174,-7.154e-05,0.0,0 STARLINK-4517,1 53390U 22097C   22285.25001157 -.00007154  00000-0 -43174-3 0  9991,2 53390  53.2169 310.6335 0002299  38.8748 226.0750 15.08842841 10148,6917.871999999999,95.437,541.327,538.146,0.0
53390.0,STARLINK-4517,PAYLOAD,2022-10-12 14:00:01,15.08827296,0.0002368,53.2167,309.1335,35.3381,241.2105,0.0046653,0.00074724,0.0,0 STARLINK-4517,1 53390U 22097C   22285.58334491  .00074724  00000-0  46653-2 0  9996,2 53390  53.2167 309.1335 0002368  35.3381 241.2105 15.08827296  1309,6917.919,95.438,541.422,538.146,0.0
53390.0,STARLINK-4517,PAYLOAD,2022-10-12 22:00:00,15.08865298,0.0002085999999999,53.2173,307.6302,36.2863,251.8844,-0.0028006999999999,-0.00044618,0.0,0 STARLINK-4517,1 53390U 22097C   22285.91667824 -.00044618  00000-0 -28007-2 0  9996,2 53390  53.2173 307.6302 0002086  36.2863 251.8844 15.08865298  1306,6917.803000000001,95.436,541.111,538.225,0.0
53390.0,STARLINK-4517,PAYLOAD,2022-10-13 14:00:01,15.08910727,0.0002177,53.2167,304.6399,40.0029,271.3217,-0.0066133,-0.00104225,0.0,0 STARLINK-4517,1 53390U 22097C   22286.58334491 -.00104225  00000-0 -66133-2 0  9994,2 53390  53.2167 304.6399 0002177  40.0029 271.3217 15.08910727  1309,6917.6640000000025,95.433,541.035,538.023,0.0
53390.0,STARLINK-4517,PAYLOAD,2022-10-13 20:00:01,15.08835663,0.0002013,53.2175,303.5124,44.5779,185.5508,0.00013947,1.932e-05,0.0,0 STARLINK-4517,1 53390U 22097C   22286.83335648  .00001932  00000-0  13947-3 0  9992,2 53390  53.2175 303.5124 0002013  44.5779 185.5508 15.08835663 10384,6917.894,95.438,541.151,538.366,0.0
53390.0,STARLINK-4517,PAYLOAD,2022-10-13 22:00:00,15.08834381,0.0002005,53.2173,303.138,44.9005,278.0641,0.00027166,4.037e-05,0.0,0 STARLINK-4517,1 53390U 22097C   22286.91667824  .00004037  00000-0  27166-3 0  9992,2 53390  53.2173 303.1380 0002005  44.9005 278.0641 15.08834381  1303,6917.898,95.438,541.15,538.376,0.0
53390.0,STARLINK-4517,PAYLOAD,2022-10-14 14:00:01,15.08837105,0.0002247,53.2168,300.1493,34.3515,311.7941,-4.8812e-05,-1.065e-05,0.0,0 STARLINK-4517,1 53390U 22097C   22287.58334491 -.00001065  00000-0 -48812-4 0  9999,2 53390  53.2168 300.1493 0002247  34.3515 311.7941 15.08837105  1301,6917.889,95.438,541.309,538.2,0.0
53390.0,STARLINK-4517,PAYLOAD,2022-10-14 20:00:01,15.08835501,0.0002104,53.2175,299.0231,35.7162,229.1265,0.00016399,2.322e-05,0.0,0 STARLINK-4517,1 53390U 22097C   22287.83334491  .00002322  00000-0  16399-3 0  9996,2 53390  53.2175 299.0231 0002104  35.7162 229.1265 15.08835501  1309,6917.894,95.438,541.215,538.304,0.0
53390.0,STARLINK-4517,PAYLOAD,2022-10-15 06:00:00,15.08832565,0.0002479,53.2176,297.1558,36.1495,333.1832,0.00043535,6.646e-05,0.0,0 STARLINK-4517,1 53390U 22097C   22288.25001157  .00006646  00000-0  43535-3 0  9998,2 53390  53.2176 297.1558 0002479  36.1495 333.1832 15.08832565 10606,6917.903,95.438,541.4830000000002,538.053,0.0
53390.0,STARLINK-4517,PAYLOAD,2022-10-15 14:00:01,15.08878949,0.0002345,53.2177,295.6715,32.3319,348.6149,-0.0023313,-0.00037241,0.0,0 STARLINK-4517,1 53390U 22097C   22288.58334491 -.00037241  00000-0 -23313-2 0  9992,2 53390  53.2177 295.6715 0002345  32.3319 348.6149 15.08878949 10653,6917.761,95.435,541.249,538.004,0.0
53390.0,STARLINK-4517,PAYLOAD,2022-10-15 22:00:01,15.08904705,0.0002230999999999,53.2175,294.1661,35.0925,357.5636,-0.0155819999999999,-0.00240542,0.0,0 STARLINK-4517,1 53390U 22097C   22288.91668981 -.00240542  00000-0 -15582-1 0  9991,2 53390  53.2175 294.1661 0002231  35.0925 357.5636 15.08904705  1304,6917.683000000001,95.433,541.091,538.004,0.0
53390.0,STARLINK-4517,PAYLOAD,2022-10-16 14:00:01,15.08835573,0.0002251,53.2176,291.1825,30.5878,25.1405,-8.6937e-06,-4.27e-06,0.0,0 STARLINK-4517,1 53390U 22097C   22289.58334491 -.00000427  00000-0 -86937-5 0  9993,2 53390  53.2176 291.1825 0002251  30.5878  25.1405 15.08835573  1301,6917.894,95.438,541.316,538.202,0.0
53390.0,STARLINK-4517,PAYLOAD,2022-10-16 22:00:00,15.08830865,0.0002055,53.2174,289.6825,36.3187,31.0038,0.00096055,0.00015028,0.0,0 STARLINK-4517,1 53390U 22097C   22289.91667824  .00015028  00000-0  96055-3 0  9990,2 53390  53.2174 289.6825 0002055  36.3187  31.0038 15.08830865 10857,6917.908,95.438,541.195,538.352,0.0
53390.0,STARLINK-4517,PAYLOAD,2022-10-17 14:00:01,15.08843268,0.0002334,53.217,286.6913,35.8156,54.6773,-0.00027919,-4.73e-05,0.0,0 STARLINK-4517,1 53390U 22097C   22290.58334491 -.00004730  00000-0 -27919-3 0  9999,2 53390  53.2170 286.6913 0002334  35.8156  54.6773 15.08843268  1306,6917.87,95.437,541.35,538.121,0.0
53390.0,STARLINK-4517,PAYLOAD,2022-10-17 22:00:00,15.0887523,0.0002141,53.2171,285.1883,38.6099,63.4792,-0.006666,-0.00104941,0.0,0 STARLINK-4517,1 53390U 22097C   22290.91667824 -.00104941  00000-0 -66660-2 0  9995,2 53390  53.2171 285.1883 0002141  38.6099  63.4792 15.08875230  1303,6917.773,95.435,541.119,538.1569999999998,0.0
53390.0,STARLINK-4517,PAYLOAD,2022-10-18 00:00:00,15.08859501,0.0002112999999999,53.2174,284.813,38.4828,156.5093,-0.0056925,-0.00089808,0.0,0 STARLINK-4517,1 53390U 22097C   22291.00001157 -.00089808  00000-0 -56925-2 0  9994,2 53390  53.2174 284.8130 0002113  38.4828 156.5093 15.08859501 11014,6917.821,95.436,541.148,538.224,0.0
53390.0,STARLINK-4517,PAYLOAD,2022-10-18 14:00:01,15.08842147,0.0002285,53.2166,282.2049,36.322,88.9309,-0.00082626,-0.00013415,0.0,0 STARLINK-4517,1 53390U 22097C   22291.58334491 -.00013415  00000-0 -82626-3 0  9996,2 53390  53.2166 282.2049 0002285  36.3220  88.9309 15.08842147 11105,6917.874,95.437,541.32,538.158,0.0
53390.0,STARLINK-4517,PAYLOAD,2022-10-18 22:00:00,15.08837153,0.0001878,53.2174,280.6919,43.0222,93.825,-6.1502e-05,-1.267e-05,0.0,0 STARLINK-4517,1 53390U 22097C   22291.91667824 -.00001267  00000-0 -61502-4 0  9995,2 53390  53.2174 280.6919 0001878  43.0222  93.8250 15.08837153  1308,6917.889,95.438,541.053,538.455,0.0
53390.0,STARLINK-4517,PAYLOAD,2022-10-19 14:00:01,15.08846554,0.0002276999999999,53.2162,277.7158,36.2433,123.7822,-0.0010455,-0.00016892,0.0,0 STARLINK-4517,1 53390U 22097C   22292.58334491 -.00016892  00000-0 -10455-2 0  9999,2 53390  53.2162 277.7158 0002277  36.2433 123.7822 15.08846554  1302,6917.86,95.437,541.3009999999998,538.15,0.0
53390.0,STARLINK-4517,PAYLOAD,2022-10-19 22:00:00,15.08867796,0.000214,53.2167,276.2102,39.8059,131.8205,-0.0044218,-0.00070033,0.0,0 STARLINK-4517,1 53390U 22097C   22292.91667824 -.00070033  00000-0 -44218-2 0  9996,2 53390  53.2167 276.2102 0002140  39.8059 131.8205 15.08867796  1308,6917.795,95.436,541.141,538.18,0.0
53390.0,STARLINK-4517,PAYLOAD,2022-10-20 14:00:01,15.08850637,0.0002288,53.2164,273.2239,35.9221,158.8849,-0.0012758,-0.00020542,0.0,0 STARLINK-4517,1 53390U 22097C   22293.58334491 -.00020542  00000-0 -12758-2 0  9995,2 53390  53.2164 273.2239 0002288  35.9221 158.8849 15.08850637 11405,6917.848000000001,95.437,541.2959999999998,538.13,0.0
53390.0,STARLINK-4517,PAYLOAD,2022-10-20 22:00:00,15.08841596,0.0002154999999999,53.2164,271.7262,41.285,165.1133,0.0011005,0.00017271,0.0,0 STARLINK-4517,1 53390U 22097C   22293.91667824  .00017271  00000-0  11005-2 0  9998,2 53390  53.2164 271.7262 0002155  41.2850 165.1133 15.08841596  1304,6917.876,95.437,541.231,538.25,0.0
53390.0,STARLINK-4517,PAYLOAD,2022-10-21 14:00:01,15.08855612,0.0002292,53.2168,268.7356,35.9124,193.68,-0.0013915999999999,-0.00022378,0.0,0 STARLINK-4517,1 53390U 22097C   22294.58334491 -.00022378  00000-0 -13916-2 0  9992,2 53390  53.2168 268.7356 0002292  35.9124 193.6800 15.08855612  1305,6917.833000000001,95.437,541.283,538.112,0.0
53390.0,STARLINK-4517,PAYLOAD,2022-10-21 22:00:00,15.08852625,0.000215,53.217,267.2396,39.7441,201.4412,-0.00089664,-0.00014535,0.0,0 STARLINK-4517,1 53390U 22097C   22294.91667824 -.00014535  00000-0 -89664-3 0  9998,2 53390  53.2170 267.2396 0002150  39.7441 201.4412 15.08852625  1301,6917.842,95.437,541.194,538.219,0.0
53390.0,STARLINK-4517,PAYLOAD,2022-10-22 14:00:01,15.0885598,0.0002259,53.2171,264.2476,35.5358,228.8352,-0.0015787,-0.00025337,0.0,0 STARLINK-4517,1 53390U 22097C   22295.58334491 -.00025337  00000-0 -15787-2 0  9999,2 53390  53.2171 264.2476 0002259  35.5358 228.8352 15.08855980 11707,6917.831999999999,95.437,541.259,538.134,0.0
